DUCHIFAT-1
1 40021U 14033M   17252.31407573  .00001596  00000-0  17130-3 0  9991
2 40021 097.9134 165.5846 0013945 029.5557 330.6446 14.89979031175125
NANOSATCBR1
1 40024U 14033Q   17252.28731118  .00001262  00000-0  13901-3 0  9997
2 40024 097.9089 164.3110 0013260 031.4070 328.7936 14.89292156174543
EO-79
1 40025U 14033R   17252.31205545  .00001078  00000-0  12199-3 0  9995
2 40025 097.9066 163.2507 0013451 034.2123 325.9958 14.88483115174492
DTUSAT-2
1 40030U 14033W   17252.27137279  .00000986  00000-0  11308-3 0  9992
2 40030 097.9030 162.2360 0012827 029.5725 330.6214 14.88103369174449
EO-80
1 40032U 14033Y   17252.58624111  .00001364  00000-0  15440-3 0  9996
2 40032 097.9036 162.5553 0012730 028.9826 331.2094 14.88040922174473
ANTELSAT
1 40034U 14033AA  17252.74738447  .00001011  00000-0  15802-3 0  9995
2 40034  97.8466 134.0058 0059767  22.2007 338.1769 14.73748422173382
VELOX-1
1 40057U 14034E   17252.76822552  .00001060  00000-0  15722-3 0  9999
2 40057  98.1941 354.2795 0012042 142.4612 217.7438 14.77188873172246
DAURIA DX 1
1 40071U 14037C   17252.71806478  .00000084  00000-0  18191-4 0  9991
2 40071  98.3457   7.1804 0009704 135.5256 224.6763 14.81047894171484
UKUBE-1
1 40074U 14037F   17252.80476955  .00001099  00000-0  14052-3 0  9995
2 40074  98.3562  11.5660 0005737 129.8487 230.3214 14.83566092171727
HODOYOSHI-1
1 40299U 14070B   17252.79779476  .00003128  00000-0  13808-3 0  9996
2 40299  97.4002 334.2460 0014046 148.9903 359.5977 15.22406610157813
CHUBUSAT-1
1 40300U 14070C   17252.77560476  .00004247  00000-0  19337-3 0  9991
2 40300  97.3919 331.1106 0021433 161.1752 354.2382 15.21023738157640
QSAT-EOS
1 40301U 14070D   17252.81303747  .00008186  00000-0  34170-3 0  9991
2 40301  97.3849 331.4375 0028193 156.6103 344.0585 15.23544223157712
FIREBIRD FU3
1 40377U 15003B   17252.78506575  .00009826  00000-0  41004-3 0  9997
2 40377  99.1199  93.6367 0136067  82.0611 279.6034 15.15806482143825
FIREBIRD FU4
1 40378U 15003C   17252.77617874  .00009746  00000-0  40625-3 0  9991
2 40378  99.1202  93.6692 0136266  81.9811 279.6853 15.15823352143827
GRIFEX
1 40379U 15003D   17252.76704549  .00008047  00000-0  35625-3 0  9994
2 40379  99.1232  91.0801 0142329  90.6083 271.1453 15.13279543143671
NO-84
1 40654U 15025D   17251.32053598  .00014093  00000-0  24887-3 0 00746
2 40654 054.9941 224.7502 0180161 114.6770 247.3240 15.34759591012473
NO-83
1 40655U 15025E   17251.45160644  .00027402  00000-0  38072-3 0 00808
2 40655 054.9799 193.9820 0145273 132.0046 229.3682 15.45416517012548
DEORBITSAIL
1 40719U 15032E   17252.58481592  .00001569  00000-0  23415-3 0  9990
2 40719 097.9696 145.2451 0015165 229.6713 130.3173 14.76141860116777
NUDT-PHONESAT
1 40900U 15049B   17252.59195287  .00009944  00000-0  46604-3 0  9994
2 40900 097.4437 259.3380 0012136 294.0789 065.9176 15.19831150109278
XW-2A
1 40903U 15049E   17252.78202821  .00008100  00000-0  21036-3 0  9996
2 40903  97.4161 279.5221 0013581 327.3930  32.6475 15.39144572110650
XW-2C
1 40906U 15049H   17252.80561582  .00003587  00000-0  19699-3 0  9990
2 40906  97.4567 256.6177 0013469 283.3408  76.6322 15.14689090109047
