Satellite: DUCHIFAT-1
Catalog number: 40021
Epoch time: 17252.314076
Element set: 999
Inclination: 97.913400 deg
RA of node: 165.584600 deg
Eccentricity: 0.001394
Arg of perigee: 29.555700 deg
Mean anomaly: 330.644600 deg
Mean motion: 14.899790 rev/day
Decay rate: 1.596000e-05 rev/day^2
Epoch rev: 1751

Satellite: NANOSATCBR1
Catalog number: 40024
Epoch time: 17252.287311
Element set: 999
Inclination: 97.908900 deg
RA of node: 164.311000 deg
Eccentricity: 0.001326
Arg of perigee: 31.407000 deg
Mean anomaly: 328.793600 deg
Mean motion: 14.892922 rev/day
Decay rate: 1.262000e-05 rev/day^2
Epoch rev: 1745

Satellite: EO-79
Catalog number: 40025
Epoch time: 17252.312055
Element set: 999
Inclination: 97.906600 deg
RA of node: 163.250700 deg
Eccentricity: 0.001345
Arg of perigee: 34.212300 deg
Mean anomaly: 325.995800 deg
Mean motion: 14.884831 rev/day
Decay rate: 1.078000e-05 rev/day^2
Epoch rev: 1744

Satellite: DTUSAT-2
Catalog number: 40030
Epoch time: 17252.271373
Element set: 999
Inclination: 97.903000 deg
RA of node: 162.236000 deg
Eccentricity: 0.001283
Arg of perigee: 29.572500 deg
Mean anomaly: 330.621400 deg
Mean motion: 14.881034 rev/day
Decay rate: 9.860000e-06 rev/day^2
Epoch rev: 1744

Satellite: EO-80
Catalog number: 40032
Epoch time: 17252.586241
Element set: 999
Inclination: 97.903600 deg
RA of node: 162.555300 deg
Eccentricity: 0.001273
Arg of perigee: 28.982600 deg
Mean anomaly: 331.209400 deg
Mean motion: 14.880409 rev/day
Decay rate: 1.364000e-05 rev/day^2
Epoch rev: 1744

Satellite: ANTELSAT
Catalog number: 40034
Epoch time: 17252.747384
Element set: 999
Inclination: 97.846600 deg
RA of node: 134.005800 deg
Eccentricity: 0.005977
Arg of perigee: 22.200700 deg
Mean anomaly: 338.176900 deg
Mean motion: 14.737484 rev/day
Decay rate: 1.011000e-05 rev/day^2
Epoch rev: 1733

Satellite: VELOX-1
Catalog number: 40057
Epoch time: 17252.768226
Element set: 999
Inclination: 98.194100 deg
RA of node: 354.279500 deg
Eccentricity: 0.001204
Arg of perigee: 142.461200 deg
Mean anomaly: 217.743800 deg
Mean motion: 14.771889 rev/day
Decay rate: 1.060000e-05 rev/day^2
Epoch rev: 1722

Satellite: DAURIA DX 1
Catalog number: 40071
Epoch time: 17252.718065
Element set: 999
Inclination: 98.345700 deg
RA of node: 7.180400 deg
Eccentricity: 0.000970
Arg of perigee: 135.525600 deg
Mean anomaly: 224.676300 deg
Mean motion: 14.810479 rev/day
Decay rate: 8.400000e-07 rev/day^2
Epoch rev: 1714

Satellite: UKUBE-1
Catalog number: 40074
Epoch time: 17252.804770
Element set: 999
Inclination: 98.356200 deg
RA of node: 11.566000 deg
Eccentricity: 0.000574
Arg of perigee: 129.848700 deg
Mean anomaly: 230.321400 deg
Mean motion: 14.835661 rev/day
Decay rate: 1.099000e-05 rev/day^2
Epoch rev: 1717

Satellite: HODOYOSHI-1
Catalog number: 40299
Epoch time: 17252.797795
Element set: 999
Inclination: 97.400200 deg
RA of node: 334.246000 deg
Eccentricity: 0.001405
Arg of perigee: 148.990300 deg
Mean anomaly: 359.597700 deg
Mean motion: 15.224066 rev/day
Decay rate: 3.128000e-05 rev/day^2
Epoch rev: 1578

Satellite: CHUBUSAT-1
Catalog number: 40300
Epoch time: 17252.775605
Element set: 999
Inclination: 97.391900 deg
RA of node: 331.110600 deg
Eccentricity: 0.002143
Arg of perigee: 161.175200 deg
Mean anomaly: 354.238200 deg
Mean motion: 15.210237 rev/day
Decay rate: 4.247000e-05 rev/day^2
Epoch rev: 1576

Satellite: QSAT-EOS
Catalog number: 40301
Epoch time: 17252.813037
Element set: 999
Inclination: 97.384900 deg
RA of node: 331.437500 deg
Eccentricity: 0.002819
Arg of perigee: 156.610300 deg
Mean anomaly: 344.058500 deg
Mean motion: 15.235442 rev/day
Decay rate: 8.186000e-05 rev/day^2
Epoch rev: 1577

Satellite: FIREBIRD FU3
Catalog number: 40377
Epoch time: 17252.785066
Element set: 999
Inclination: 99.119900 deg
RA of node: 93.636700 deg
Eccentricity: 0.013607
Arg of perigee: 82.061100 deg
Mean anomaly: 279.603400 deg
Mean motion: 15.158065 rev/day
Decay rate: 9.826000e-05 rev/day^2
Epoch rev: 1438

Satellite: FIREBIRD FU4
Catalog number: 40378
Epoch time: 17252.776179
Element set: 999
Inclination: 99.120200 deg
RA of node: 93.669200 deg
Eccentricity: 0.013627
Arg of perigee: 81.981100 deg
Mean anomaly: 279.685300 deg
Mean motion: 15.158234 rev/day
Decay rate: 9.746000e-05 rev/day^2
Epoch rev: 1438

Satellite: GRIFEX
Catalog number: 40379
Epoch time: 17252.767045
Element set: 999
Inclination: 99.123200 deg
RA of node: 91.080100 deg
Eccentricity: 0.014233
Arg of perigee: 90.608300 deg
Mean anomaly: 271.145300 deg
Mean motion: 15.132795 rev/day
Decay rate: 8.047000e-05 rev/day^2
Epoch rev: 1436

Satellite: NO-84
Catalog number: 40654
Epoch time: 17251.320536
Element set: 74
Inclination: 54.994100 deg
RA of node: 224.750200 deg
Eccentricity: 0.018016
Arg of perigee: 114.677000 deg
Mean anomaly: 247.324000 deg
Mean motion: 15.347596 rev/day
Decay rate: 1.409300e-04 rev/day^2
Epoch rev: 124

Satellite: NO-83
Catalog number: 40655
Epoch time: 17251.451606
Element set: 80
Inclination: 54.979900 deg
RA of node: 193.982000 deg
Eccentricity: 0.014527
Arg of perigee: 132.004600 deg
Mean anomaly: 229.368200 deg
Mean motion: 15.454165 rev/day
Decay rate: 2.740200e-04 rev/day^2
Epoch rev: 125

Satellite: DEORBITSAIL
Catalog number: 40719
Epoch time: 17252.584816
Element set: 999
Inclination: 97.969600 deg
RA of node: 145.245100 deg
Eccentricity: 0.001516
Arg of perigee: 229.671300 deg
Mean anomaly: 130.317300 deg
Mean motion: 14.761419 rev/day
Decay rate: 1.569000e-05 rev/day^2
Epoch rev: 1167

Satellite: NUDT-PHONESAT
Catalog number: 40900
Epoch time: 17252.591953
Element set: 999
Inclination: 97.443700 deg
RA of node: 259.338000 deg
Eccentricity: 0.001214
Arg of perigee: 294.078900 deg
Mean anomaly: 65.917600 deg
Mean motion: 15.198312 rev/day
Decay rate: 9.944000e-05 rev/day^2
Epoch rev: 1092

Satellite: XW-2A
Catalog number: 40903
Epoch time: 17252.782028
Element set: 999
Inclination: 97.416100 deg
RA of node: 279.522100 deg
Eccentricity: 0.001358
Arg of perigee: 327.393000 deg
Mean anomaly: 32.647500 deg
Mean motion: 15.391446 rev/day
Decay rate: 8.100000e-05 rev/day^2
Epoch rev: 1106

Satellite: XW-2C
Catalog number: 40906
Epoch time: 17252.805616
Element set: 999
Inclination: 97.456700 deg
RA of node: 256.617700 deg
Eccentricity: 0.001347
Arg of perigee: 283.340800 deg
Mean anomaly: 76.632200 deg
Mean motion: 15.146891 rev/day
Decay rate: 3.587000e-05 rev/day^2
Epoch rev: 1090

